GLOBALSTAR M057 [-]     
1 25943U 99058A   23302.55888283 -.00000049  00000+0  39506-3 0  9990
2 25943  51.9976 241.3479 0001919 221.6057 138.4646 12.24777249 93824
GLOBALSTAR M059 [-]     
1 25944U 99058B   23302.92578373 -.00000090  00000+0 -44641-4 0  9992
2 25944  52.0044  20.2135 0000477 164.6300 242.6583 11.99953893502466
GLOBALSTAR M056 [-]     
1 25945U 99058C   23302.76444557 -.00000031  00000+0  65544-3 0  9999
2 25945  51.9987  37.9321 0001472  98.3300  76.2681 12.04770466 90734
GLOBALSTAR M031 [-]     
1 25946U 99058D   23302.84542425 -.00000067  00000+0  24192-3 0  9995
2 25946  51.9975 325.7133 0001771  50.2310 121.2732 12.15997104 91990
GLOBALSTAR M039 [-]     
1 25961U 99062A   23302.92562027 -.00000078  00000+0  14511-3 0  9992
2 25961  51.9840 284.7269 0003097 100.4373 259.6842 12.62273017104919
GLOBALSTAR M034 [-]     
1 25962U 99062B   23302.93167882 -.00000061  00000+0  31072-3 0  9997
2 25962  51.9843 121.2649 0013964   0.0629 151.7604 11.79416879 68035
GLOBALSTAR M029 [-]     
1 25963U 99062C   23302.67245381 -.00000074  00000+0  15116-3 0  9995
2 25963  51.9796 269.4458 0003107  29.8638 141.1555 11.99869453 97518
GLOBALSTAR M061 [-]     
1 25964U 99062D   23302.92254610 -.00000057  00000+0  37640-3 0  9996
2 25964  51.9792 297.4268 0005851 287.9651 138.0228 11.76752452 50982
